{
  "type": "FeatureCollection",
  "features": [
    {
      "type": "Feature",
      "properties": {
        "norad_id": 33376,
        "name": "GALAXY 19 (G-19)",
        "group": "intelsat",
        "lat": -0.03335173194444842,
        "lon": -111.6978108044997,
        "alt_km": 35776.77878872905,
        "timestamp": "2025-12-22T16:55:17.117983+00:00",
        "meta_object_name": "GALAXY 19 (G-19)",
        "meta_object_id": "2008-045A",
        "meta_epoch": "2025-12-22T04:08:37.456800",
        "meta_mean_motion": 1.00271156,
        "meta_eccentricity": 0.0002577,
        "meta_inclination": 0.0483,
        "meta_ra_of_asc_node": 266.4229,
        "meta_arg_of_pericenter": 11.4514,
        "meta_mean_anomaly": 138.2609,
        "meta_ephemeris_type": 0,
        "meta_classification_type": "U",
        "meta_norad_cat_id": 33376,
        "meta_element_set_no": 999,
        "meta_rev_at_epoch": 6312,
        "meta_bstar": 0,
        "meta_mean_motion_dot": -1.17e-06,
        "meta_mean_motion_ddot": 0,
        "tle_line1": "1 33376U 08045A   25356.17265575 -.00000117  00000+0  00000+0 0  9996",
        "tle_line2": "2 33376   0.0483 266.4229 0002577  11.4514 138.2609  1.00271156 63121"
      },
      "geometry": {
        "type": "Point",
        "coordinates": [
          -111.6978108044997,
          -0.03335173194444842
        ]
      }
    },
    {
      "type": "Feature",
      "properties": {
        "norad_id": 35493,
        "name": "FM-5",
        "group": "intelsat",
        "lat": -0.02621612351731102,
        "lon": -100.79946140484877,
        "alt_km": 35787.065905480296,
        "timestamp": "2025-12-22T16:55:17.117995+00:00",
        "meta_object_name": "FM-5",
        "meta_object_id": "2009-034A",
        "meta_epoch": "2025-12-22T06:09:12.432960",
        "meta_mean_motion": 1.00271979,
        "meta_eccentricity": 0.00011489,
        "meta_inclination": 0.0244,
        "meta_ra_of_asc_node": 288.5182,
        "meta_arg_of_pericenter": 228.8788,
        "meta_mean_anomaly": 299.8359,
        "meta_ephemeris_type": 0,
        "meta_classification_type": "U",
        "meta_norad_cat_id": 35493,
        "meta_element_set_no": 999,
        "meta_rev_at_epoch": 4487,
        "meta_bstar": 0,
        "meta_mean_motion_dot": -1.78e-06,
        "meta_mean_motion_ddot": 0,
        "tle_line1": "1 35493U 09034A   25356.25639390 -.00000178  00000+0  00000+0 0  9993",
        "tle_line2": "2 35493   0.0244 288.5182 0001148 228.8788 299.8359  1.00271979 44871"
      },
      "geometry": {
        "type": "Point",
        "coordinates": [
          -100.79946140484877,
          -0.02621612351731102
        ]
      }
    },
    {
      "type": "Feature",
      "properties": {
        "norad_id": 36097,
        "name": "INTELSAT 14 (IS-14)",
        "group": "intelsat",
        "lat": -0.032573929461834766,
        "lon": -59.67109330607817,
        "alt_km": 35776.44066500474,
        "timestamp": "2025-12-22T16:55:17.118007+00:00",
        "meta_object_name": "INTELSAT 14 (IS-14)",
        "meta_object_id": "2009-064A",
        "meta_epoch": "2025-12-22T05:16:38.623008",
        "meta_mean_motion": 1.00270148,
        "meta_eccentricity": 0.00025124,
        "meta_inclination": 0.0089,
        "meta_ra_of_asc_node": 26.9735,
        "meta_arg_of_pericenter": 256.0936,
        "meta_mean_anomaly": 202.1247,
        "meta_ephemeris_type": 0,
        "meta_classification_type": "U",
        "meta_norad_cat_id": 36097,
        "meta_element_set_no": 999,
        "meta_rev_at_epoch": 5883,
        "meta_bstar": 0,
        "meta_mean_motion_dot": -2.52e-06,
        "meta_mean_motion_ddot": 0,
        "tle_line1": "1 36097U 09064A   25356.21989147 -.00000252  00000+0  00000+0 0  9994",
        "tle_line2": "2 36097   0.0089  26.9735 0002512 256.0936 202.1247  1.00270148 58832"
      },
      "geometry": {
        "type": "Point",
        "coordinates": [
          -59.67109330607817,
          -0.032573929461834766
        ]
      }
    },
    {
      "type": "Feature",
      "properties": {
        "norad_id": 36106,
        "name": "INTELSAT 15 (IS-15)",
        "group": "intelsat",
        "lat": 0.040838558190050056,
        "lon": 70.49536534848203,
        "alt_km": 35794.06847956404,
        "timestamp": "2025-12-22T16:55:17.118018+00:00",
        "meta_object_name": "INTELSAT 15 (IS-15)",
        "meta_object_id": "2009-067A",
        "meta_epoch": "2025-12-21T22:09:42.611904",
        "meta_mean_motion": 1.00271577,
        "meta_eccentricity": 0.00021866,
        "meta_inclination": 0.0182,
        "meta_ra_of_asc_node": 356.5187,
        "meta_arg_of_pericenter": 285.6468,
        "meta_mean_anomaly": 226.1604,
        "meta_ephemeris_type": 0,
        "meta_classification_type": "U",
        "meta_norad_cat_id": 36106,
        "meta_element_set_no": 999,
        "meta_rev_at_epoch": 3945,
        "meta_bstar": 0,
        "meta_mean_motion_dot": -1.63e-06,
        "meta_mean_motion_ddot": 0,
        "tle_line1": "1 36106U 09067A   25355.92340986 -.00000163  00000+0  00000+0 0  9998",
        "tle_line2": "2 36106   0.0182 356.5187 0002186 285.6468 226.1604  1.00271577 39452"
      },
      "geometry": {
        "type": "Point",
        "coordinates": [
          70.49536534848203,
          0.040838558190050056
        ]
      }
    },
    {
      "type": "Feature",
      "properties": {
        "norad_id": 36131,
        "name": "DIRECTV 12",
        "group": "intelsat",
        "lat": -0.006164240856174355,
        "lon": -117.39575341403527,
        "alt_km": 35786.61922199791,
        "timestamp": "2025-12-22T16:55:17.118030+00:00",
        "meta_object_name": "DIRECTV 12",
        "meta_object_id": "2009-075A",
        "meta_epoch": "2025-12-22T05:49:42.774816",
        "meta_mean_motion": 1.00271685,
        "meta_eccentricity": 3.93e-05,
        "meta_inclination": 0.018,
        "meta_ra_of_asc_node": 102.3505,
        "meta_arg_of_pericenter": 248.0602,
        "meta_mean_anomaly": 85.3564,
        "meta_ephemeris_type": 0,
        "meta_classification_type": "U",
        "meta_norad_cat_id": 36131,
        "meta_element_set_no": 999,
        "meta_rev_at_epoch": 4477,
        "meta_bstar": 0,
        "meta_mean_motion_dot": -8.2e-07,
        "meta_mean_motion_ddot": 0,
        "tle_line1": "1 36131U 09075A   25356.24285619 -.00000082  00000+0  00000+0 0  9992",
        "tle_line2": "2 36131   0.0180 102.3505 0000393 248.0602  85.3564  1.00271685 44771"
      },
      "geometry": {
        "type": "Point",
        "coordinates": [
          -117.39575341403527,
          -0.006164240856174355
        ]
      }
    },
    {
      "type": "Feature",
      "properties": {
        "norad_id": 36397,
        "name": "INTELSAT 16 (IS-16)",
        "group": "intelsat",
        "lat": -0.029395687039806846,
        "lon": -90.87514524426392,
        "alt_km": 35778.664217531026,
        "timestamp": "2025-12-22T16:55:17.118041+00:00",
        "meta_object_name": "INTELSAT 16 (IS-16)",
        "meta_object_id": "2010-006A",
        "meta_epoch": "2025-12-22T06:14:27.240864",
        "meta_mean_motion": 1.00270688,
        "meta_eccentricity": 0.00018364,
        "meta_inclination": 0.0154,
        "meta_ra_of_asc_node": 316.8633,
        "meta_arg_of_pericenter": 315.0883,
        "meta_mean_anomaly": 196.5369,
        "meta_ephemeris_type": 0,
        "meta_classification_type": "U",
        "meta_norad_cat_id": 36397,
        "meta_element_set_no": 999,
        "meta_rev_at_epoch": 5788,
        "meta_bstar": 0,
        "meta_mean_motion_dot": -2.23e-06,
        "meta_mean_motion_ddot": 0,
        "tle_line1": "1 36397U 10006A   25356.26003751 -.00000223  00000+0  00000+0 0  9996",
        "tle_line2": "2 36397   0.0154 316.8633 0001836 315.0883 196.5369  1.00270688 57885"
      },
      "geometry": {
        "type": "Point",
        "coordinates": [
          -90.87514524426392,
          -0.029395687039806846
        ]
      }
    },
    {
      "type": "Feature",
      "properties": {
        "norad_id": 37185,
        "name": "XM-5",
        "group": "intelsat",
        "lat": -0.057305521974690445,
        "lon": -129.84840828111382,
        "alt_km": 35785.72874251878,
        "timestamp": "2025-12-22T16:55:17.118053+00:00",
        "meta_object_name": "XM-5",
        "meta_object_id": "2010-053A",
        "meta_epoch": "2025-12-22T05:52:38.044992",
        "meta_mean_motion": 1.00269548,
        "meta_eccentricity": 0.00020822,
        "meta_inclination": 0.0681,
        "meta_ra_of_asc_node": 270.5154,
        "meta_arg_of_pericenter": 236.2671,
        "meta_mean_anomaly": 277.2399,
        "meta_ephemeris_type": 0,
        "meta_classification_type": "U",
        "meta_norad_cat_id": 37185,
        "meta_element_set_no": 999,
        "meta_rev_at_epoch": 5570,
        "meta_bstar": 0,
        "meta_mean_motion_dot": -1e-08,
        "meta_mean_motion_ddot": 0,
        "tle_line1": "1 37185U 10053A   25356.24488478 -.00000001  00000+0  00000+0 0  9999",
        "tle_line2": "2 37185   0.0681 270.5154 0002082 236.2671 277.2399  1.00269548 55705"
      },
      "geometry": {
        "type": "Point",
        "coordinates": [
          -129.84840828111382,
          -0.057305521974690445
        ]
      }
    }
  ]
}